{"version": 0.6, "generator": "Overpass API 0.7.62.8 e802775f", "osm3s": {"timestamp_osm_base": "2025-12-09T05:16:25Z", "copyright": "The data included in this document is from www.openstreetmap.org. The data is made available under ODbL."}, "elements": [{"type": "node", "id": 1842624277, "lat": 7.5611694, "lon": 6.6043634, "tags": {"amenity": "pharmacy"}}, {"type": "node", "id": 1842628497, "lat": 7.5536089, "lon": 6.5931721, "tags": {"amenity": "marketplace", "name": "Muslim Market"}}, {"type": "node", "id": 1842632176, "lat": 7.5527913, "lon": 6.6299089, "tags": {"amenity": "school", "name": "ASCL Staff Comprehensive Secondary School III"}}, {"type": "node", "id": 1842632179, "lat": 7.5540263, "lon": 6.6449797, "tags": {"amenity": "school", "name": "ASCL Staff Comprehensive Secondary School II"}}, {"type": "node", "id": 1842638001, "lat": 7.5604144, "lon": 6.6389373, "tags": {"amenity": "bank"}}, {"type": "node", "id": 1842640049, "lat": 7.5411769, "lon": 6.6788163, "tags": {"amenity": "bank", "atm": "yes", "name": "United Bank for Africa"}}, {"type": "node", "id": 1842643011, "lat": 7.5404483, "lon": 6.6783282, "tags": {"amenity": "marketplace", "name": "ASCo Camp Market"}}, {"type": "node", "id": 1842646013, "lat": 7.5438039, "lon": 6.6823461, "tags": {"amenity": "bank", "name": "First Bank Nigeria PLC"}}, {"type": "node", "id": 1842647228, "lat": 7.5373266, "lon": 6.6710379, "tags": {"amenity": "marketplace"}}, {"type": "node", "id": 1842648024, "lat": 7.5384274, "lon": 6.6716656, "tags": {"amenity": "fuel", "operator": "Oando"}}, {"type": "node", "id": 1842648486, "lat": 7.5436444, "lon": 6.6696325, "tags": {"amenity": "fuel", "brand": "Oando"}}, {"type": "node", "id": 1842648571, "lat": 7.5451388, "lon": 6.6676852, "tags": {"amenity": "fuel"}}, {"type": "node", "id": 1842648647, "lat": 7.547936, "lon": 6.6663923, "tags": {"amenity": "fuel"}}, {"type": "node", "id": 1842648801, "lat": 7.5606951, "lon": 6.6396153, "tags": {"amenity": "fuel", "brand": "National"}}, {"type": "node", "id": 1842656958, "lat": 7.5553598, "lon": 6.6347745, "tags": {"amenity": "school"}}, {"type": "node", "id": 1842720853, "lat": 7.5598613, "lon": 6.6446866, "tags": {"amenity": "marketplace", "name": "BB Market"}}, {"type": "node", "id": 1842738097, "lat": 7.5435221, "lon": 6.6835478, "tags": {"amenity": "school"}}, {"type": "node", "id": 1844912034, "lat": 7.56454, "lon": 6.6016352, "tags": {"amenity": "school"}}, {"type": "node", "id": 1846516824, "lat": 7.5570842, "lon": 6.6008411, "tags": {"amenity": "school", "name": "Ajaokuta Indian Language School"}}, {"type": "node", "id": 1846885981, "lat": 7.5496203, "lon": 6.6001617, "tags": {"amenity": "school", "name": "ASCL Staff Secondary School I"}}, {"type": "node", "id": 1984809208, "lat": 7.5543802, "lon": 6.5922866}, {"type": "node", "id": 1984809358, "lat": 7.5537281, "lon": 6.5922095}, {"type": "node", "id": 1984809393, "lat": 7.5540471, "lon": 6.593013}, {"type": "node", "id": 1984809403, "lat": 7.5533625, "lon": 6.5929846}, {"type": "node", "id": 2248849763, "lat": 7.5373898, "lon": 6.6805159}, {"type": "node", "id": 2248849764, "lat": 7.5374585, "lon": 6.6806086}, {"type": "node", "id": 2248849770, "lat": 7.5376631, "lon": 6.68031}, {"type": "node", "id": 2248849772, "lat": 7.5377317, "lon": 6.6804027}, {"type": "node", "id": 4995099216, "lat": 7.5589627, "lon": 6.6374085, "tags": {"amenity": "school", "name": "ASCL PRIMARY SCHOOL II"}}, {"type": "node", "id": 6046476879, "lat": 7.6670074, "lon": 6.7015757, "tags": {"amenity": "school"}}, {"type": "node", "id": 6251483219, "lat": 7.5548082, "lon": 6.6219771}, {"type": "node", "id": 6251483220, "lat": 7.554287, "lon": 6.6222399}, {"type": "node", "id": 6251483221, "lat": 7.5540663, "lon": 6.621969}, {"type": "node", "id": 6251483222, "lat": 7.5539999, "lon": 6.6215962}, {"type": "node", "id": 6251483223, "lat": 7.5545184, "lon": 6.6213548}, {"type": "node", "id": 10183227541, "lat": 7.5538702, "lon": 6.5932171}, {"type": "node", "id": 10183227542, "lat": 7.5539307, "lon": 6.593091}, {"type": "node", "id": 10183227543, "lat": 7.5536715, "lon": 6.5931447}, {"type": "node", "id": 10183227544, "lat": 7.5538855, "lon": 6.5920115}, {"type": "way", "id": 187838997, "nodes": [1984809208, 10183227544, 1984809358, 1984809403, 10183227543, 10183227541, 10183227542, 1984809393, 1984809208], "tags": {"amenity": "marketplace"}}, {"type": "way", "id": 215440783, "nodes": [2248849764, 2248849763, 2248849770, 2248849772, 2248849764], "tags": {"amenity": "bank", "building": "yes"}}, {"type": "way", "id": 667663358, "nodes": [6251483223, 6251483222, 6251483221, 6251483220, 6251483219, 6251483223], "tags": {"amenity": "marketplace", "landuse": "retail", "name": "JDP Market"}}]}