{"version": 0.6, "generator": "Overpass API 0.7.62.8 e802775f", "osm3s": {"timestamp_osm_base": "2025-12-09T05:16:25Z", "copyright": "The data included in this document is from www.openstreetmap.org. The data is made available under ODbL."}, "elements": [{"type": "node", "id": 5838562210, "lat": 7.7944444, "lon": 6.7332589}, {"type": "node", "id": 5838562211, "lat": 7.794459, "lon": 6.7334622}, {"type": "node", "id": 5838562212, "lat": 7.7943404, "lon": 6.7334708}, {"type": "node", "id": 5838562213, "lat": 7.7943259, "lon": 6.7332675}, {"type": "node", "id": 5974118095, "lat": 7.8005741, "lon": 6.7442661}, {"type": "node", "id": 5974118096, "lat": 7.8005174, "lon": 6.7442626}, {"type": "node", "id": 5974118097, "lat": 7.8005088, "lon": 6.7444009}, {"type": "node", "id": 5974118098, "lat": 7.8005655, "lon": 6.7444045}, {"type": "node", "id": 8851563682, "lat": 7.7921375, "lon": 6.7319975, "tags": {"amenity": "university", "name": "Federal University Lokoja"}}, {"type": "node", "id": 8851563692, "lat": 7.8153022, "lon": 6.7488564, "tags": {"amenity": "marketplace", "name": "Old Market"}}, {"type": "node", "id": 10168014895, "lat": 7.7955419, "lon": 6.7398422}, {"type": "node", "id": 10168014896, "lat": 7.7955428, "lon": 6.7399599}, {"type": "node", "id": 10168014897, "lat": 7.7957484, "lon": 6.7399582}, {"type": "node", "id": 10168014898, "lat": 7.7957474, "lon": 6.7398405}, {"type": "node", "id": 10168070835, "lat": 7.7955607, "lon": 6.7387006}, {"type": "node", "id": 10168070836, "lat": 7.795562, "lon": 6.7388584}, {"type": "node", "id": 10168070837, "lat": 7.7956217, "lon": 6.7388579}, {"type": "node", "id": 10168070838, "lat": 7.7956204, "lon": 6.7387001}, {"type": "node", "id": 10185136428, "lat": 7.7982951, "lon": 6.7433247}, {"type": "node", "id": 10185136429, "lat": 7.7982892, "lon": 6.7433991}, {"type": "node", "id": 10185136430, "lat": 7.7981855, "lon": 6.7433906}, {"type": "node", "id": 10185136431, "lat": 7.7981915, "lon": 6.7433162}, {"type": "node", "id": 10186685784, "lat": 7.7956288, "lon": 6.7374995}, {"type": "node", "id": 10186685785, "lat": 7.7956023, "lon": 6.7376228}, {"type": "node", "id": 10186685786, "lat": 7.7956895, "lon": 6.737642}, {"type": "node", "id": 10186685787, "lat": 7.7957161, "lon": 6.7375186}, {"type": "node", "id": 10186685788, "lat": 7.7955609, "lon": 6.7378269}, {"type": "node", "id": 10186685789, "lat": 7.7957868, "lon": 6.7378912}, {"type": "node", "id": 10186685790, "lat": 7.7958197, "lon": 6.7377734}, {"type": "node", "id": 10186685791, "lat": 7.7955939, "lon": 6.737709}, {"type": "node", "id": 10209107886, "lat": 7.7956155, "lon": 6.7408483}, {"type": "node", "id": 10209107887, "lat": 7.7956785, "lon": 6.7408453}, {"type": "node", "id": 10209107888, "lat": 7.795671, "lon": 6.7406856}, {"type": "node", "id": 10209107889, "lat": 7.795608, "lon": 6.7406886}, {"type": "node", "id": 10267398922, "lat": 7.8012154, "lon": 6.7443202}, {"type": "node", "id": 10267398923, "lat": 7.8012128, "lon": 6.744341}, {"type": "node", "id": 10267398924, "lat": 7.8010776, "lon": 6.7442956}, {"type": "node", "id": 10267398925, "lat": 7.8010741, "lon": 6.744323}, {"type": "node", "id": 10267398926, "lat": 7.8012534, "lon": 6.7444487}, {"type": "node", "id": 10267398927, "lat": 7.8010149, "lon": 6.7444179}, {"type": "node", "id": 10267398928, "lat": 7.8010312, "lon": 6.7442896}, {"type": "node", "id": 10267398929, "lat": 7.8012688, "lon": 6.7443271}, {"type": "node", "id": 12314888752, "lat": 7.7956447, "lon": 6.7398323}, {"type": "node", "id": 12314888753, "lat": 7.7955322, "lon": 6.7403847}, {"type": "node", "id": 12314888754, "lat": 7.795681, "lon": 6.7403747}, {"type": "node", "id": 12314888755, "lat": 7.7956943, "lon": 6.7405763}, {"type": "node", "id": 12314888756, "lat": 7.7955455, "lon": 6.7405862}, {"type": "way", "id": 617655660, "nodes": [5838562210, 5838562211, 5838562212, 5838562213, 5838562210], "tags": {"amenity": "bank", "atm": "yes", "building": "yes", "name": "Wema Bank"}}, {"type": "way", "id": 632763108, "nodes": [5974118095, 5974118096, 5974118097, 5974118098, 5974118095], "tags": {"addr:city": "Lokoja", "addr:street": "Ibb way", "amenity": "pharmacy", "building": "yes", "building:levels": "3", "landuse": "commercial", "name": "Chucks Shopping Mall", "shop": "supermarket"}}, {"type": "way", "id": 1111237445, "nodes": [10168014898, 10168014897, 10168014896, 10168014895, 12314888752, 10168014898], "tags": {"addr:city": "Lokoja", "addr:street": "Along IBB Way", "amenity": "bank", "atm": "yes", "building": "yes", "name": "United Bank of Africa", "opening_hours": "Mo-Fr 08:00-17:00", "operator": "UBA"}}, {"type": "way", "id": 1111237455, "nodes": [10168070838, 10168070837, 10168070836, 10168070835, 10168070838], "tags": {"addr:city": "Lokoja", "addr:street": "Along IBB Way", "amenity": "bank", "atm": "yes", "building": "yes", "name": "Union Bank", "opening_hours": "Mo-Fr 08:00-17:00", "operator": "Union Bank"}}, {"type": "way", "id": 1113248484, "nodes": [10185136431, 10185136428, 10185136429, 10185136430, 10185136431], "tags": {"addr:city": "Lokoja", "addr:street": "Along IBB Way", "building": "yes", "name": "Bigger Future", "opening_hours": "Mo-Sa 08:00-20:00", "operator": "Bigger Future", "shop": "electronics", "tenant": "Catal Auto Holdings"}}, {"type": "way", "id": 1113435754, "nodes": [10186685787, 10186685786, 10186685785, 10186685784, 10186685787], "tags": {"addr:city": "Lokoja", "addr:street": "Along IBB Way", "building": "yes", "name": "Sola-Rinde & Twins Electronic Showroom", "opening_hours": "Mo-Sa 08:00-20:00", "operator": "MeWe", "shop": "electronics", "tenant": "Uncle P Photography Store"}}, {"type": "way", "id": 1113435755, "nodes": [10186685791, 10186685790, 10186685789, 10186685788, 10186685791], "tags": {"addr:city": "Lokoja", "addr:street": "Along IBB Way", "amenity": "bank", "atm": "yes", "building": "yes", "drive_through": "no", "name": "Guarantee Trust Bank", "opening_hours": "Mo-Fr 08:00-17:00", "operator": "GTCo"}}, {"type": "way", "id": 1116214313, "nodes": [10209107889, 10209107888, 10209107887, 10209107886, 10209107889], "tags": {"addr:city": "Lokoja", "addr:street": "Along IBB Way", "brand": "LG", "brand:wikidata": "Q162345", "building": "yes", "name": "LG", "opening_hours": "Mo-Sa 08:00-20:00", "operator": "MeWe", "shop": "electronics", "tenant": "Startimes Dealer; Samsung Showroom; MeWe Showroom; Winning Collection"}}, {"type": "way", "id": 1122613549, "nodes": [10267398929, 10267398926, 10267398927, 10267398928, 10267398924, 10267398925, 10267398923, 10267398922, 10267398929], "tags": {"addr:city": "Lokoja", "addr:street": "Ibb way, Opposite Post Office", "amenity": "bank", "atm": "yes", "building": "yes", "drive_through": "no", "name": "First Bank of Nigeria", "opening_hours": "Mo-Fr 08:00-17:00", "operator": "First Bank"}}, {"type": "way", "id": 1330980269, "nodes": [12314888753, 12314888754, 12314888755, 12314888756, 12314888753], "tags": {"addr:city": "Lokoja", "addr:street": "Along IBB  Way", "amenity": "fuel", "building": "industrial", "fuel:diesel": "yes", "fuel:octane_95": "yes", "name": "KY Oil & Gas Ltd.", "operator": "KY Oil & Gas", "tenant": "Barbing Salon"}}]}